NORAD_CAT_ID,OBJECT_NAME,OBJECT_TYPE,EPOCH,MEAN_MOTION,ECCENTRICITY,INCLINATION,RA_OF_ASC_NODE,ARG_OF_PERICENTER,MEAN_ANOMALY,BSTAR,MEAN_MOTION_DOT,MEAN_MOTION_DDOT,TLE_LINE0,TLE_LINE1,TLE_LINE2,SEMIMAJOR_AXIS,PERIOD,APOGEE,PERIGEE,DECAYED
53994.0,STARLINK-5125,PAYLOAD,2024-08-04 13:37:51,15.08831704,0.0001904,53.2166,307.2507,78.1824,281.9382,0.00017397,2.481e-05,0.0,0 STARLINK-5125,1 53994U 22125AG  24217.56795479  .00002481  00000-0  17397-3 0  9995,2 53994  53.2166 307.2507 0001904  78.1824 281.9382 15.08831704101588,6917.906,95.438,541.088,538.454,0.0
53994.0,STARLINK-5125,PAYLOAD,2024-08-04 15:13:14,15.08835908,0.0001966,53.2169,306.9473,84.9236,275.1981,0.00021759,3.176e-05,0.0,0 STARLINK-5125,1 53994U 22125AG  24217.63419034  .00003176  00000-0  21759-3 0  9992,2 53994  53.2169 306.9473 0001966  84.9236 275.1981 15.08835908101668,6917.893,95.438,541.118,538.398,0.0
53994.0,STARLINK-5125,PAYLOAD,2024-08-04 23:10:08,15.08855957,0.0001483,53.2172,305.4644,77.3177,282.7981,0.00027659,4.119e-05,0.0,0 STARLINK-5125,1 53994U 22125AG  24217.96537334  .00004119  00000-0  27659-3 0  9995,2 53994  53.2172 305.4644 0001483  77.3177 282.7981 15.08855957101716,6917.832,95.437,540.723,538.671,0.0
53994.0,STARLINK-5125,PAYLOAD,2024-08-05 13:28:37,15.08851547,0.0001691,53.2169,302.7872,82.3925,277.7259,8.882e-05,1.126e-05,0.0,0 STARLINK-5125,1 53994U 22125AG  24218.56154144  .00001126  00000-0  88820-4 0  9999,2 53994  53.2169 302.7872 0001691  82.3925 277.7259 15.08851547101806,6917.845,95.437,540.88,538.54,0.0
53994.0,STARLINK-5125,PAYLOAD,2024-08-06 05:22:29,15.08834894,0.0001634,53.217,299.8149,115.6247,244.4914,-0.0001546,-2.747e-05,0.0,0 STARLINK-5125,1 53994U 22125AG  24219.22395525 -.00002747  00000-0 -15460-3 0  9994,2 53994  53.2170 299.8149 0001634 115.6247 244.4914 15.08834894101901,6917.896,95.438,540.891,538.631,0.0
53994.0,STARLINK-5125,PAYLOAD,2024-08-07 05:13:15,15.0883701,0.0001397,53.2175,295.3537,105.8911,254.2235,8.1129e-05,1.003e-05,0.0,0 STARLINK-5125,1 53994U 22125AG  24220.21754285  .00001003  00000-0  81129-4 0  9995,2 53994  53.2175 295.3537 0001397 105.8911 254.2235 15.08837010102058,6917.89,95.438,540.721,538.788,0.0
53994.0,STARLINK-5125,PAYLOAD,2024-08-07 11:34:48,15.08846614,0.0001506,53.2172,294.1641,105.8611,254.2547,1.096e-05,-1.14e-06,0.0,0 STARLINK-5125,1 53994U 22125AG  24220.48250062 -.00000114  00000-0  10960-4 0  9996,2 53994  53.2172 294.1641 0001506 105.8611 254.2547 15.08846614102020,6917.86,95.437,540.767,538.683,0.0
53994.0,STARLINK-5125,PAYLOAD,2024-08-08 09:50:12,15.0882338,0.0001616,53.2167,289.9996,114.881,245.235,0.0003114,4.669e-05,0.0,0 STARLINK-5125,1 53994U 22125AG  24221.40986845  .00004669  00000-0  31140-3 0  9994,2 53994  53.2167 289.9996 0001616 114.8810 245.2350 15.08823380102164,6917.931,95.439,540.914,538.678,0.0
53994.0,STARLINK-5125,PAYLOAD,2024-08-09 04:54:50,15.08840591,0.0001393,53.2159,286.4301,102.2903,257.8245,2.4699e-05,1.05e-06,0.0,0 STARLINK-5125,1 53994U 22125AG  24222.20474599  .00000105  00000-0  24699-4 0  9994,2 53994  53.2159 286.4301 0001393 102.2903 257.8245 15.08840591102359,6917.879,95.438,540.707,538.78,0.0
53994.0,STARLINK-5125,PAYLOAD,2024-08-09 11:16:23,15.08832688,0.0001322,53.2159,285.2443,90.7555,269.3588,4.1285e-05,3.69e-06,0.0,0 STARLINK-5125,1 53994U 22125AG  24222.46971124  .00000369  00000-0  41285-4 0  9990,2 53994  53.2159 285.2443 0001322  90.7555 269.3588 15.08832688102399,6917.903,95.438,540.682,538.853,0.0
53994.0,STARLINK-5125,PAYLOAD,2024-08-09 14:27:09,15.08836237,0.0001362,53.2155,284.6481,94.8198,265.2949,2.305e-05,7.9e-07,0.0,0 STARLINK-5125,1 53994U 22125AG  24222.60218954  .00000079  00000-0  23050-4 0  9999,2 53994  53.2155 284.6481 0001362  94.8198 265.2949 15.08836237102347,6917.892,95.438,540.699,538.815,0.0
53994.0,STARLINK-5125,PAYLOAD,2024-08-10 11:07:11,15.08811617,0.000137,53.2158,280.7846,108.2886,251.8255,-0.00011935,-2.185e-05,0.0,0 STARLINK-5125,1 53994U 22125AG  24223.46333288 -.00002185  00000-0 -11935-3 0  9992,2 53994  53.2158 280.7846 0001370 108.2886 251.8255 15.08811617102543,6917.967,95.439,540.78,538.884,0.0
53994.0,STARLINK-5125,PAYLOAD,2024-08-10 20:39:30,15.08823518,0.0001268,53.2157,279.0005,101.203,258.9104,-3.2234e-05,-8.01e-06,0.0,0 STARLINK-5125,1 53994U 22125AG  24223.86076814 -.00000801  00000-0 -32234-4 0  9994,2 53994  53.2157 279.0005 0001268 101.2030 258.9104 15.08823518102601,6917.931,95.439,540.673,538.919,0.0
53994.0,STARLINK-5125,PAYLOAD,2024-08-11 12:33:19,15.08852383,0.0001377,53.2148,276.0252,105.4143,254.7002,0.00025784,3.819e-05,0.0,0 STARLINK-5125,1 53994U 22125AG  24224.52314509  .00003819  00000-0  25784-3 0  9995,2 53994  53.2148 276.0252 0001377 105.4143 254.7002 15.08852383102708,6917.843,95.437,540.66,538.755,0.0
53994.0,STARLINK-5125,PAYLOAD,2024-08-11 20:30:14,15.08866983,0.0001532,53.216,274.54,82.4183,277.6983,0.00033666,5.078e-05,0.0,0 STARLINK-5125,1 53994U 22125AG  24224.85433239  .00005078  00000-0  33666-3 0  9990,2 53994  53.2160 274.5400 0001532  82.4183 277.6983 15.08866983102759,6917.798,95.436,540.723,538.603,0.0
53994.0,STARLINK-5125,PAYLOAD,2024-08-12 02:51:47,15.0886297,0.0002901,53.2164,273.3511,79.6558,280.4761,0.00035437,5.36e-05,0.0,0 STARLINK-5125,1 53994U 22125AG  24225.11929737  .00005360  00000-0  35437-3 0  9995,2 53994  53.2164 273.3511 0002901  79.6558 280.4761 15.08862970102790,6917.81,95.436,541.682,537.668,0.0
53994.0,STARLINK-5125,PAYLOAD,2024-08-12 12:24:06,15.08850314,0.0001476,53.216,271.5585,103.5372,256.5785,0.00040653,6.19e-05,0.0,0 STARLINK-5125,1 53994U 22125AG  24225.51673899  .00006190  00000-0  40653-3 0  9992,2 53994  53.2160 271.5585 0001476 103.5372 256.5785 15.08850314102850,6917.849,95.437,540.735,538.693,0.0
53994.0,STARLINK-5125,PAYLOAD,2024-08-12 20:21:01,15.08865245,0.0001381,53.2161,270.0714,92.8594,267.2556,0.0003629,5.496e-05,0.0,0 STARLINK-5125,1 53994U 22125AG  24225.84792893  .00005496  00000-0  36290-3 0  9994,2 53994  53.2161 270.0714 0001381  92.8594 267.2556 15.08865245102832,6917.803,95.436,540.624,538.713,0.0
53994.0,STARLINK-5125,PAYLOAD,2024-08-13 02:42:36,15.08827465,0.0001642,53.2167,268.8878,96.9016,263.2163,-0.00012925,-2.344e-05,0.0,0 STARLINK-5125,1 53994U 22125AG  24226.11292609 -.00002344  00000-0 -12925-3 0  9995,2 53994  53.2167 268.8878 0001642  96.9016 263.2163 15.08827465102942,6917.919,95.438,540.92,538.648,0.0
53994.0,STARLINK-5125,PAYLOAD,2024-08-13 12:14:54,15.08854066,0.0001301,53.2173,267.104,106.1269,253.9866,-0.00015511,-2.757e-05,0.0,0 STARLINK-5125,1 53994U 22125AG  24226.51034886 -.00002757  00000-0 -15511-3 0  9992,2 53994  53.2173 267.1040 0001301 106.1269 253.9866 15.08854066103009,6917.837,95.437,540.602,538.802,0.0
53994.0,STARLINK-5125,PAYLOAD,2024-08-13 20:11:49,15.08849447,0.0001726,53.216,265.6181,79.7581,280.3606,-0.00017796,-3.12e-05,0.0,0 STARLINK-5125,1 53994U 22125AG  24226.84154319 -.00003120  00000-0 -17796-3 0  9994,2 53994  53.2160 265.6181 0001726  79.7581 280.3606 15.08849447102986,6917.852,95.437,540.911,538.522,0.0
53994.0,STARLINK-5125,PAYLOAD,2024-08-14 08:54:55,15.08822253,0.0001484,53.2145,263.2389,86.6719,273.4443,-0.00020478,-3.544e-05,0.0,0 STARLINK-5125,1 53994U 22125AG  24227.37147880 -.00003544  00000-0 -20478-3 0  9999,2 53994  53.2145 263.2389 0001484  86.6719 273.4443 15.08822253103130,6917.935,95.439,540.826,538.773,0.0
53994.0,STARLINK-5125,PAYLOAD,2024-08-14 20:02:37,15.08829474,0.0001565,53.2162,261.1541,100.2921,259.8248,-0.00022353,-3.843e-05,0.0,0 STARLINK-5125,1 53994U 22125AG  24227.83515812 -.00003843  00000-0 -22353-3 0  9990,2 53994  53.2162 261.1541 0001565 100.2921 259.8248 15.08829474103205,6917.913,95.438,540.86,538.695,0.0
53994.0,STARLINK-5125,PAYLOAD,2024-08-15 08:45:43,15.08824942,0.0001545,53.2158,258.7768,98.0665,262.0503,0.00014189,1.97e-05,0.0,0 STARLINK-5125,1 53994U 22125AG  24228.36508321  .00001970  00000-0  14189-3 0  9991,2 53994  53.2158 258.7768 0001545  98.0665 262.0503 15.08824942103216,6917.926,95.439,540.86,538.723,0.0
53994.0,STARLINK-5125,PAYLOAD,2024-08-16 07:01:06,15.0883581,0.0001374,53.2155,254.614,97.0934,263.0214,0.00028712,4.284e-05,0.0,0 STARLINK-5125,1 53994U 22125AG  24229.29243947  .00004284  00000-0  28712-3 0  9992,2 53994  53.2155 254.6140 0001374  97.0934 263.0214 15.08835810103429,6917.893,95.438,540.709,538.808,0.0
53994.0,STARLINK-5125,PAYLOAD,2024-08-16 21:19:34,15.08846693,0.0001347,53.2152,251.9383,95.9819,264.1326,0.00023753,3.495e-05,0.0,0 STARLINK-5125,1 53994U 22125AG  24229.88859621  .00003495  00000-0  23753-3 0  9992,2 53994  53.2152 251.9383 0001347  95.9819 264.1326 15.08846693103443,6917.86,95.437,540.657,538.793,0.0
53994.0,STARLINK-5125,PAYLOAD,2024-08-17 02:05:44,15.0883547,0.000111,53.2153,251.0464,28.4281,331.6772,6.3044e-05,7.16e-06,0.0,0 STARLINK-5125,1 53994U 22125AG  24230.08732506  .00000716  00000-0  63044-4 0  9999,2 53994  53.2153 251.0464 0001110  28.4281 331.6772 15.08835470103544,6917.894,95.438,540.527,538.991,0.0
53994.0,STARLINK-5125,PAYLOAD,2024-08-17 11:38:03,15.08836566,0.000128,53.215,249.2594,95.0082,265.1057,6.9383e-05,8.16e-06,0.0,0 STARLINK-5125,1 53994U 22125AG  24230.48476616  .00000816  00000-0  69383-4 0  9993,2 53994  53.2150 249.2594 0001280  95.0082 265.1057 15.08836566103534,6917.891,95.438,540.641,538.87,0.0
53994.0,STARLINK-5125,PAYLOAD,2024-08-18 05:07:17,15.08844455,0.0001276,53.2149,245.9888,97.1429,262.9708,1.8953e-05,1.4e-07,0.0,0 STARLINK-5125,1 53994U 22125AG  24231.21340058  .00000014  00000-0  18953-4 0  9992,2 53994  53.2149 245.9888 0001276  97.1429 262.9708 15.08844455103718,6917.867,95.437,540.614,538.849,0.0
53994.0,STARLINK-5125,PAYLOAD,2024-08-18 14:39:36,15.08843605,0.0001277,53.215,244.2047,96.4467,263.6671,9.4828e-06,-1.37e-06,0.0,0 STARLINK-5125,1 53994U 22125AG  24231.61083990 -.00000137  00000-0  94828-5 0  9998,2 53994  53.2150 244.2047 0001277  96.4467 263.6671 15.08843605103706,6917.869,95.437,540.618,538.851,0.0
